CSS (TIANHE)            
1 48274U 21035A   24034.19370704  .00016300  00000+0  17740-3 0  9991
2 48274  41.4672 187.9288 0008608 292.6082  67.3846 15.63023652157960
